*******************************************************************************
JPL/HORIZONS                 76 Freia (A862 UA)            2020-Jun-20 08:05:41
Rec #:      76 (+COV) Soln.date: 2020-Feb-22_15:16:41   # obs: 3498 (1864-2020)
 
IAU76/J2000 helio. ecliptic osc. elements (au, days, deg., period=Julian yrs):
 
  EPOCH=  2454602.5 ! 2008-May-16.00 (TDB)         Residual RMS= .29914
   EC= .16312430975045     QR= 2.860742251070908   TP= 2454489.3207293651
   OM= 204.5236587607954   W=  253.9597295214229   IN= 2.115935145468205
   A= 3.418359840537197    MA= 17.64998327762692   ADIST= 3.975977430003486
   PER= 6.32026            N= .155947133           ANGMOM= .031378622
   DAN= 3.48445            DDN= 3.18389            L= 98.4730175
   B= -2.0335217           MOID= 1.87916994        TP= 2008-Jan-23.8207293651
 
Asteroid physical parameters (km, seconds, rotational period in hours):
   GM= n.a.                RAD= 72.7115            ROTPER= 9.973
   H= 8.                   G= .150                 B-V= .704
                           ALBEDO= .058            STYP= X
 
ASTEROID comments: 
1: soln ref.= JPL#52, OCC=0
2: source=ORB
*******************************************************************************
 
 
*******************************************************************************
Ephemeris / WWW_USER Sat Jun 20 08:05:41 2020 Pasadena, USA      / Horizons
*******************************************************************************
Target body name: 76 Freia (A862 UA)              {source: JPL#52}
Center body name: Solar System Barycenter (0)     {source: DE431}
Center-site name: BODY CENTER
*******************************************************************************
Start time      : A.D. 1969-Jun-28 00:00:00.0000 TDB
Stop  time      : A.D. 2071-May-04 00:00:00.0000 TDB
Step-size       : 7200 minutes
*******************************************************************************
Center geodetic : 0.00000000,0.00000000,0.0000000 {E-lon(deg),Lat(deg),Alt(km)}
Center cylindric: 0.00000000,0.00000000,0.0000000 {E-lon(deg),Dxy(km),Dz(km)}
Center radii    : (undefined)                                                  
Small perturbers: Yes                             {source: SB431-N16}
Output units    : AU-D
Output type     : GEOMETRIC cartesian states
Output format   : 2 (position and velocity)
Reference frame : Ecliptic of J2000.0
*******************************************************************************
Initial IAU76/J2000 heliocentric ecliptic osculating elements (au, days, deg.):
  EPOCH=  2454602.5 ! 2008-May-16.00 (TDB)         Residual RMS= .29914        
   EC= .16312430975045     QR= 2.860742251070908   TP= 2454489.3207293651      
   OM= 204.5236587607954   W=  253.9597295214229   IN= 2.115935145468205       
  Equivalent ICRF heliocentric equatorial cartesian coordinates (au, au/d):
   X=-1.583081427770892E+00  Y= 2.266811422406220E+00  Z= 8.674837633872552E-01
  VX=-9.418779071978215E-03 VY=-4.951336956095995E-03 VZ=-2.106960730049597E-03
Asteroid physical parameters (km, seconds, rotational period in hours):        
   GM= n.a.                RAD= 72.7115            ROTPER= 9.973               
   H= 8.                   G= .150                 B-V= .704                   
                           ALBEDO= .058            STYP= X                     
*******************************************************************************
            JDTDB,            Calendar Date (TDB),        delta-T,                      X,                      Y,                      Z,                     VX,                     VY,                     VZ,
******************************************************************************************************************************************************************************************************************
$$SOE
2474700.500000000, A.D. 2063-May-26 00:00:00.0000,      69.185039,  3.189940304364923E+00,  5.872636084442675E-01,  2.576979801071851E-02, -3.583821620616919E-03,  9.063887924001528E-03, -3.659719516028436E-04,
2474705.500000000, A.D. 2063-May-31 00:00:00.0000,      69.184929,  3.171674103513582E+00,  6.325167338420011E-01,  2.393718485723384E-02, -3.722726575043283E-03,  9.036993574234544E-03, -3.670615312622749E-04,
2474710.500000000, A.D. 2063-Jun-05 00:00:00.0000,      69.184811,  3.152712385853789E+00,  6.776298316422511E-01,  2.209930175716582E-02, -3.862023145746365E-03,  9.007871700646403E-03, -3.680796749917863E-04,
2474715.500000000, A.D. 2063-Jun-10 00:00:00.0000,      69.184686,  3.133053272288052E+00,  7.225916865391748E-01,  2.025650973080914E-02, -4.001679536279975E-03,  8.976491245464548E-03, -3.690248441673502E-04,
2474720.500000000, A.D. 2063-Jun-15 00:00:00.0000,      69.184556,  3.112695045765819E+00,  7.673909282220046E-01,  1.840917752630197E-02, -4.141662720070774E-03,  8.942821270574259E-03, -3.698954864319591E-04,
2474725.500000000, A.D. 2063-Jun-20 00:00:00.0000,      69.184423,  3.091636157497063E+00,  8.120160320661972E-01,  1.655768168587904E-02, -4.281938415378745E-03,  8.906830995004724E-03, -3.706900366714071E-04,
2474730.500000000, A.D. 2063-Jun-25 00:00:00.0000,      69.184288,  3.069875233289152E+00,  8.564553200174970E-01,  1.470240660713268E-02, -4.422471060959620E-03,  8.868489834655824E-03, -3.714069180268671E-04,
2474735.500000000, A.D. 2063-Jun-30 00:00:00.0000,      69.184152,  3.047411080004689E+00,  9.006969616802774E-01,  1.284374459915062E-02, -4.563223791958878E-03,  8.827767444232148E-03, -3.720445429388608E-04,
2474740.500000000, A.D. 2063-Jul-05 00:00:00.0000,      69.184014,  3.024242692139133E+00,  9.447289756202685E-01,  1.098209593322291E-02, -4.704158416212131E-03,  8.784633761007611E-03, -3.726013142865616E-04,
2474745.500000000, A.D. 2063-Jul-10 00:00:00.0000,      69.183874,  3.000369258514471E+00,  9.885392308904926E-01,  9.117868887536908E-03, -4.845235391608513E-03,  8.739059050382397E-03, -3.730756266515146E-04,
2474750.500000000, A.D. 2063-Jul-15 00:00:00.0000,      69.183734,  2.975790169082853E+00,  1.032115448790032E+00,  7.251479785299877E-03, -4.986413804735332E-03,  8.691013953496795E-03, -3.734658676775338E-04,
2474755.500000000, A.D. 2063-Jul-20 00:00:00.0000,      69.183598,  2.950505021833967E+00,  1.075445204866307E+00,  5.383353025862833E-03, -5.127651350735471E-03,  8.640469537027309E-03, -3.737704195099197E-04,
2474760.500000000, A.D. 2063-Jul-25 00:00:00.0000,      69.183466,  2.924513629800054E+00,  1.118515931171795E+00,  3.513921108444053E-03, -5.268904314399440E-03,  8.587397345164951E-03, -3.739876603170940E-04,
2474765.500000000, A.D. 2063-Jul-30 00:00:00.0000,      69.183338,  2.897816028152161E+00,  1.161314918786074E+00,  1.643624648026632E-03, -5.410127552611338E-03,  8.531769453763624E-03, -3.741159659009470E-04,
2474770.500000000, A.D. 2063-Aug-04 00:00:00.0000,      69.183213,  2.870412481380457E+00,  1.203829320614025E+00, -2.270876170285207E-04, -5.551274478294477E-03,  8.473558526658756E-03, -3.741537114001365E-04,
2474775.500000000, A.D. 2063-Aug-09 00:00:00.0000,      69.183092,  2.842303490550773E+00,  1.246046154471068E+00, -2.097758826122696E-03, -5.692297046002915E-03,  8.412737874160541E-03, -3.740992730887774E-04,
2474780.500000000, A.D. 2063-Aug-14 00:00:00.0000,      69.182978,  2.813489800628779E+00,  1.287952306466301E+00, -3.967924006795609E-03, -5.833145739301910E-03,  8.349281513722681E-03, -3.739510302721099E-04,
2474785.500000000, A.D. 2063-Aug-19 00:00:00.0000,      69.182873,  2.783972407862486E+00,  1.329534534694413E+00, -5.837110094823931E-03, -5.973769560075490E-03,  8.283164232780096E-03, -3.737073672803691E-04,
2474790.500000000, A.D. 2063-Aug-24 00:00:00.0000,      69.182777,  2.753752567213115E+00,  1.370779473247166E+00, -7.704835964538654E-03, -6.114116019893715E-03,  8.214361653736872E-03, -3.733666755623024E-04,
2474795.500000000, A.D. 2063-Aug-29 00:00:00.0000,      69.182689,  2.722831799823732E+00,  1.411673636555125E+00, -9.570612469863786E-03, -6.254131133561351E-03,  8.142850301065494E-03, -3.729273558811672E-04,
2474800.500000000, A.D. 2063-Sep-03 00:00:00.0000,      69.182610,  2.691211900514450E+00,  1.452203424069995E+00, -1.143394249660613E-02, -6.393759414961033E-03,  8.068607670431204E-03, -3.723878206212236E-04,
2474805.500000000, A.D. 2063-Sep-08 00:00:00.0000,      69.182540,  2.658894945292372E+00,  1.492355125297279E+00, -1.329432102658874E-02, -6.532943875346435E-03,  7.991612299650943E-03, -3.717464962231282E-04,
2474810.500000000, A.D. 2063-Sep-13 00:00:00.0000,      69.182480,  2.625883298863233E+00,  1.532114925187650E+00, -1.515123521433946E-02, -6.671626024471741E-03,  7.911843841167280E-03, -3.710018257716887E-04,
2474815.500000000, A.D. 2063-Sep-18 00:00:00.0000,      69.182433,  2.592179622128901E+00,  1.571468909894132E+00, -1.700416447706984E-02, -6.809745875220616E-03,  7.829283135922845E-03, -3.701522717171228E-04,
2474820.500000000, A.D. 2063-Sep-23 00:00:00.0000,      69.182398,  2.557786879652280E+00,  1.610403072902972E+00, -1.885258059845311E-02, -6.947241951973284E-03,  7.743912289060768E-03, -3.691963186606983E-04,
2474825.500000000, A.D. 2063-Sep-28 00:00:00.0000,      69.182376,  2.522708347072200E+00,  1.648903321548256E+00, -2.069594784645723E-02, -7.084051302149882E-03,  7.655714747676273E-03, -3.681324762048567E-04,
2474830.500000000, A.D. 2063-Oct-03 00:00:00.0000,      69.182363,  2.486947618452831E+00,  1.686955483919225E+00, -2.253372310576249E-02, -7.220109510964258E-03,  7.564675380031387E-03, -3.669592819422613E-04,
2474835.500000000, A.D. 2063-Oct-08 00:00:00.0000,      69.182362,  2.450508613549677E+00,  1.724545316166508E+00, -2.436535602546561E-02, -7.355350720139088E-03,  7.470780555917275E-03, -3.656753045744362E-04,
